[{"OBJECT_NAME":"STARLINK-34019","OBJECT_ID":"2025-102L","EPOCH":"2026-03-09T13:04:44.810976","MEAN_MOTION":14.98333004,"ECCENTRICITY":0.00033338,"INCLINATION":70.001,"RA_OF_ASC_NODE":114.6939,"ARG_OF_PERICENTER":268.9305,"MEAN_ANOMALY":91.1472,"EPHEMERIS_TYPE":0,"CLASSIFICATION_TYPE":"U","NORAD_CAT_ID":64032,"ELEMENT_SET_NO":999,"REV_AT_EPOCH":4594,"BSTAR":0.00012630216,"MEAN_MOTION_DOT":1.414e-5,"MEAN_MOTION_DDOT":0},{"OBJECT_NAME":"CZ-6A DEB","OBJECT_ID":"2024-140UU","EPOCH":"2026-03-09T14:59:25.616256","MEAN_MOTION":14.76478592,"ECCENTRICITY":0.0108839,"INCLINATION":89.1464,"RA_OF_ASC_NODE":292.2182,"ARG_OF_PERICENTER":203.0446,"MEAN_ANOMALY":156.5875,"EPHEMERIS_TYPE":0,"CLASSIFICATION_TYPE":"U","NORAD_CAT_ID":61331,"ELEMENT_SET_NO":999,"REV_AT_EPOCH":8105,"BSTAR":0.0015527,"MEAN_MOTION_DOT":0.00011943,"MEAN_MOTION_DDOT":0}]
